{
  "norad_id": 65834,
  "name": "STARLINK-35320",
  "history": [
    {
      "epoch": "2026-03-28T22:06:34.625376Z",
      "apogee_km": 475.4328993046729,
      "perigee_km": 474.96330878334356,
      "latitude_deg": 3.1678754844996714e-05,
      "longitude_deg": -158.66829448680107,
      "height_km": 476.2263310971351,
      "semi_major_axis_km": 6853.3351040440075,
      "eccentricity": 3.426e-05,
      "inclination_deg": 53.1614,
      "raan_deg": 359.3107,
      "arg_perigee_deg": 123.2463,
      "mean_anomaly_deg": 236.8571,
      "mean_motion_rev_day": 15.30205682
    },
    {
      "epoch": "2026-03-29T01:14:41.243136Z",
      "apogee_km": 476.0370926605474,
      "perigee_km": 474.3511732018451,
      "latitude_deg": 3.429029731162093e-05,
      "longitude_deg": 153.56967653249097,
      "height_km": 476.12679444200654,
      "semi_major_axis_km": 6853.3311329311955,
      "eccentricity": 0.000123,
      "inclination_deg": 53.1609,
      "raan_deg": 358.705,
      "arg_perigee_deg": 92.3413,
      "mean_anomaly_deg": 267.7729,
      "mean_motion_rev_day": 15.30207012
    },
    {
      "epoch": "2026-03-30T00:45:29.185920Z",
      "apogee_km": 475.81645191792813,
      "perigee_km": 474.5949121182848,
      "latitude_deg": 1.8628836884348098e-05,
      "longitude_deg": 155.35394614897157,
      "height_km": 475.95639675323423,
      "semi_major_axis_km": 6853.342682018107,
      "eccentricity": 8.912e-05,
      "inclination_deg": 53.1601,
      "raan_deg": 354.1547,
      "arg_perigee_deg": 75.9847,
      "mean_anomaly_deg": 284.1253,
      "mean_motion_rev_day": 15.30203144
    },
    {
      "epoch": "2026-03-30T10:09:48.678048Z",
      "apogee_km": 475.9137898511708,
      "perigee_km": 474.52776677408474,
      "latitude_deg": 1.5742931748766983e-06,
      "longitude_deg": 12.066750048328387,
      "height_km": 476.0491405120589,
      "semi_major_axis_km": 6853.3577783126275,
      "eccentricity": 0.00010112,
      "inclination_deg": 53.1598,
      "raan_deg": 352.335,
      "arg_perigee_deg": 84.1987,
      "mean_anomaly_deg": 275.9129,
      "mean_motion_rev_day": 15.30198088
    },
    {
      "epoch": "2026-03-30T21:08:10.988736Z",
      "apogee_km": 475.643124622904,
      "perigee_km": 474.69147478784726,
      "latitude_deg": -3.3292828220543673e-05,
      "longitude_deg": -155.1007761156533,
      "height_km": 475.65117772290876,
      "semi_major_axis_km": 6853.304299705375,
      "eccentricity": 6.943e-05,
      "inclination_deg": 53.1601,
      "raan_deg": 350.2111,
      "arg_perigee_deg": 29.1788,
      "mean_anomaly_deg": 330.9251,
      "mean_motion_rev_day": 15.30215999
    },
    {
      "epoch": "2026-03-31T09:40:36.619968Z",
      "apogee_km": 475.79989783718975,
      "perigee_km": 474.62660427420906,
      "latitude_deg": 2.516556593334071e-05,
      "longitude_deg": 13.852053233488748,
      "height_km": 475.96609926626445,
      "semi_major_axis_km": 6853.350251055699,
      "eccentricity": 8.56e-05,
      "inclination_deg": 53.1591,
      "raan_deg": 347.7857,
      "arg_perigee_deg": 75.6174,
      "mean_anomaly_deg": 284.4922,
      "mean_motion_rev_day": 15.30200609
    },
    {
      "epoch": "2026-03-31T23:47:05.487936Z",
      "apogee_km": 475.90222809597617,
      "perigee_km": 474.5027761696392,
      "latitude_deg": -3.345901951065173e-05,
      "longitude_deg": 158.9210314326239,
      "height_km": 476.2060271987538,
      "semi_major_axis_km": 6853.339502132807,
      "eccentricity": 0.0001021,
      "inclination_deg": 53.1597,
      "raan_deg": 345.0544,
      "arg_perigee_deg": 98.6407,
      "mean_anomaly_deg": 261.4709,
      "mean_motion_rev_day": 15.30204209
    },
    {
      "epoch": "2026-04-02T02:25:59.561184Z",
      "apogee_km": 475.93005960507344,
      "perigee_km": 474.4064327827382,
      "latitude_deg": -4.7967819844882206e-05,
      "longitude_deg": 112.94320774197885,
      "height_km": 476.13584726289577,
      "semi_major_axis_km": 6853.305246193905,
      "eccentricity": 0.00011116,
      "inclination_deg": 53.1599,
      "raan_deg": 339.8963,
      "arg_perigee_deg": 95.2195,
      "mean_anomaly_deg": 264.8932,
      "mean_motion_rev_day": 15.30215682
    },
    {
      "epoch": "2026-04-02T22:48:40.882752Z",
      "apogee_km": 476.5046322266171,
      "perigee_km": 473.6501313723111,
      "latitude_deg": 2.5637330118052193e-05,
      "longitude_deg": 162.49098930133317,
      "height_km": 475.4998856315436,
      "semi_major_axis_km": 6853.214381799464,
      "eccentricity": 0.00020826,
      "inclination_deg": 53.1604,
      "raan_deg": 335.9531,
      "arg_perigee_deg": 70.5755,
      "mean_anomaly_deg": 289.5471,
      "mean_motion_rev_day": 15.30246115
    },
    {
      "epoch": "2026-04-03T20:45:26.299008Z",
      "apogee_km": 476.1343147328598,
      "perigee_km": 474.39903292264626,
      "latitude_deg": 2.2641252128638018e-05,
      "longitude_deg": -171.84893545940116,
      "height_km": 476.01988724898723,
      "semi_major_axis_km": 6853.403673827753,
      "eccentricity": 0.0001266,
      "inclination_deg": 53.1608,
      "raan_deg": 331.7037,
      "arg_perigee_deg": 80.3816,
      "mean_anomaly_deg": 279.7328,
      "mean_motion_rev_day": 15.30182717
    }
  ]
}